[{"OBJECT_NAME":"STARLINK-11652 [DTC]","OBJECT_ID":"2025-057J","EPOCH":"2026-01-30T15:21:08.254368","MEAN_MOTION":15.70848746,"ECCENTRICITY":0.00017374,"INCLINATION":43.0012,"RA_OF_ASC_NODE":133.8549,"ARG_OF_PERICENTER":292.7584,"MEAN_ANOMALY":67.3099,"EPHEMERIS_TYPE":0,"CLASSIFICATION_TYPE":"U","NORAD_CAT_ID":63315,"ELEMENT_SET_NO":999,"REV_AT_EPOCH":5122,"BSTAR":0.00030846724,"MEAN_MOTION_DOT":0.00039334,"MEAN_MOTION_DDOT":0},{"OBJECT_NAME":"STARLINK-11645 [DTC]","OBJECT_ID":"2025-057K","EPOCH":"2026-01-30T15:51:43.183008","MEAN_MOTION":15.70897027,"ECCENTRICITY":0.00025947,"INCLINATION":43.0001,"RA_OF_ASC_NODE":134.0265,"ARG_OF_PERICENTER":303.0307,"MEAN_ANOMALY":57.0311,"EPHEMERIS_TYPE":0,"CLASSIFICATION_TYPE":"U","NORAD_CAT_ID":63316,"ELEMENT_SET_NO":999,"REV_AT_EPOCH":5122,"BSTAR":0.0016152544,"MEAN_MOTION_DOT":0.00212721,"MEAN_MOTION_DDOT":0},{"OBJECT_NAME":"STARLINK-11633 [DTC]","OBJECT_ID":"2025-057L","EPOCH":"2026-01-30T14:42:54.953856","MEAN_MOTION":15.70946569,"ECCENTRICITY":0.0002577,"INCLINATION":43.0008,"RA_OF_ASC_NODE":133.6394,"ARG_OF_PERICENTER":323.3747,"MEAN_ANOMALY":36.6945,"EPHEMERIS_TYPE":0,"CLASSIFICATION_TYPE":"U","NORAD_CAT_ID":63317,"ELEMENT_SET_NO":999,"REV_AT_EPOCH":5119,"BSTAR":0.0017820444,"MEAN_MOTION_DOT":0.00235882,"MEAN_MOTION_DDOT":0},{"OBJECT_NAME":"STARLINK-11593 [DTC]","OBJECT_ID":"2025-057M","EPOCH":"2026-01-30T14:58:12.500256","MEAN_MOTION":15.70941603,"ECCENTRICITY":0.00018076,"INCLINATION":43.0008,"RA_OF_ASC_NODE":133.7234,"ARG_OF_PERICENTER":292.697,"MEAN_ANOMALY":67.3706,"EPHEMERIS_TYPE":0,"CLASSIFICATION_TYPE":"U","NORAD_CAT_ID":63318,"ELEMENT_SET_NO":999,"REV_AT_EPOCH":5122,"BSTAR":0.00273727,"MEAN_MOTION_DOT":0.00368369,"MEAN_MOTION_DDOT":0},{"OBJECT_NAME":"STARLINK-11588 [DTC]","OBJECT_ID":"2025-057N","EPOCH":"2026-01-30T15:13:29.415072","MEAN_MOTION":15.70903212,"ECCENTRICITY":0.00019776,"INCLINATION":43.0004,"RA_OF_ASC_NODE":133.8102,"ARG_OF_PERICENTER":301.2439,"MEAN_ANOMALY":58.8234,"EPHEMERIS_TYPE":0,"CLASSIFICATION_TYPE":"U","NORAD_CAT_ID":63319,"ELEMENT_SET_NO":999,"REV_AT_EPOCH":5119,"BSTAR":0.0012165768,"MEAN_MOTION_DOT":0.00159103,"MEAN_MOTION_DDOT":0},{"OBJECT_NAME":"STARLINK-33671","OBJECT_ID":"2025-057P","EPOCH":"2026-01-30T22:01:26.871168","MEAN_MOTION":15.27598686,"ECCENTRICITY":0.00030369,"INCLINATION":42.9945,"RA_OF_ASC_NODE":233.5304,"ARG_OF_PERICENTER":249.0003,"MEAN_ANOMALY":111.0524,"EPHEMERIS_TYPE":0,"CLASSIFICATION_TYPE":"U","NORAD_CAT_ID":63320,"ELEMENT_SET_NO":999,"REV_AT_EPOCH":5012,"BSTAR":0.0010604289,"MEAN_MOTION_DOT":0.00029053,"MEAN_MOTION_DDOT":0},{"OBJECT_NAME":"STARLINK-33650","OBJECT_ID":"2025-057Q","EPOCH":"2026-01-30T22:04:54.609600","MEAN_MOTION":15.27596972,"ECCENTRICITY":0.00023511,"INCLINATION":43.0015,"RA_OF_ASC_NODE":243.9327,"ARG_OF_PERICENTER":253.4565,"MEAN_ANOMALY":106.6029,"EPHEMERIS_TYPE":0,"CLASSIFICATION_TYPE":"U","NORAD_CAT_ID":63321,"ELEMENT_SET_NO":999,"REV_AT_EPOCH":4996,"BSTAR":0.00091508358,"MEAN_MOTION_DOT":0.00025018,"MEAN_MOTION_DDOT":0},{"OBJECT_NAME":"STARLINK-33689","OBJECT_ID":"2025-057R","EPOCH":"2026-01-28T22:42:28.670688","MEAN_MOTION":15.28476339,"ECCENTRICITY":0.00028354,"INCLINATION":43.0047,"RA_OF_ASC_NODE":254.9212,"ARG_OF_PERICENTER":280.6208,"MEAN_ANOMALY":79.4324,"EPHEMERIS_TYPE":0,"CLASSIFICATION_TYPE":"U","NORAD_CAT_ID":63322,"ELEMENT_SET_NO":999,"REV_AT_EPOCH":4970,"BSTAR":0.0016808741,"MEAN_MOTION_DOT":0.00047585,"MEAN_MOTION_DDOT":0},{"OBJECT_NAME":"STARLINK-33607","OBJECT_ID":"2025-057S","EPOCH":"2026-01-30T14:34:29.083584","MEAN_MOTION":15.27596291,"ECCENTRICITY":0.00011325,"INCLINATION":42.9977,"RA_OF_ASC_NODE":245.8854,"ARG_OF_PERICENTER":262.4659,"MEAN_ANOMALY":97.6064,"EPHEMERIS_TYPE":0,"CLASSIFICATION_TYPE":"U","NORAD_CAT_ID":63323,"ELEMENT_SET_NO":999,"REV_AT_EPOCH":4991,"BSTAR":0.0014334714,"MEAN_MOTION_DOT":0.00039415,"MEAN_MOTION_DDOT":0},{"OBJECT_NAME":"STARLINK-33619","OBJECT_ID":"2025-057T","EPOCH":"2026-01-30T15:24:14.051520","MEAN_MOTION":15.27596489,"ECCENTRICITY":1.09e-5,"INCLINATION":42.9978,"RA_OF_ASC_NODE":245.2749,"ARG_OF_PERICENTER":230.4548,"MEAN_ANOMALY":129.6294,"EPHEMERIS_TYPE":0,"CLASSIFICATION_TYPE":"U","NORAD_CAT_ID":63324,"ELEMENT_SET_NO":999,"REV_AT_EPOCH":4996,"BSTAR":0.00088986665,"MEAN_MOTION_DOT":0.00024318,"MEAN_MOTION_DDOT":0},{"OBJECT_NAME":"STARLINK-33612","OBJECT_ID":"2025-057U","EPOCH":"2026-01-30T23:00:25.733952","MEAN_MOTION":15.27610504,"ECCENTRICITY":0.00017796,"INCLINATION":42.9971,"RA_OF_ASC_NODE":244.2179,"ARG_OF_PERICENTER":256.2431,"MEAN_ANOMALY":103.8223,"EPHEMERIS_TYPE":0,"CLASSIFICATION_TYPE":"U","NORAD_CAT_ID":63325,"ELEMENT_SET_NO":999,"REV_AT_EPOCH":5000,"BSTAR":0.00076436534,"MEAN_MOTION_DOT":0.00020851,"MEAN_MOTION_DDOT":0},{"OBJECT_NAME":"STARLINK-33672","OBJECT_ID":"2025-057V","EPOCH":"2026-01-30T22:03:03.506112","MEAN_MOTION":15.27577093,"ECCENTRICITY":0.00015459,"INCLINATION":43.0002,"RA_OF_ASC_NODE":243.9078,"ARG_OF_PERICENTER":268.748,"MEAN_ANOMALY":91.3195,"EPHEMERIS_TYPE":0,"CLASSIFICATION_TYPE":"U","NORAD_CAT_ID":63326,"ELEMENT_SET_NO":999,"REV_AT_EPOCH":5000,"BSTAR":0.00081510264,"MEAN_MOTION_DOT":0.00022234,"MEAN_MOTION_DDOT":0},{"OBJECT_NAME":"STARLINK-33625","OBJECT_ID":"2025-057W","EPOCH":"2026-01-30T22:48:39.456288","MEAN_MOTION":15.27607307,"ECCENTRICITY":0.00021916,"INCLINATION":43.0029,"RA_OF_ASC_NODE":236.3778,"ARG_OF_PERICENTER":280.2923,"MEAN_ANOMALY":79.7682,"EPHEMERIS_TYPE":0,"CLASSIFICATION_TYPE":"U","NORAD_CAT_ID":63327,"ELEMENT_SET_NO":999,"REV_AT_EPOCH":5009,"BSTAR":0.00071081043,"MEAN_MOTION_DOT":0.00019366,"MEAN_MOTION_DDOT":0},{"OBJECT_NAME":"STARLINK-33699","OBJECT_ID":"2025-057X","EPOCH":"2026-01-30T22:32:00.010464","MEAN_MOTION":15.27571395,"ECCENTRICITY":0.00013738,"INCLINATION":42.9979,"RA_OF_ASC_NODE":236.2809,"ARG_OF_PERICENTER":267.5123,"MEAN_ANOMALY":92.5572,"EPHEMERIS_TYPE":0,"CLASSIFICATION_TYPE":"U","NORAD_CAT_ID":63328,"ELEMENT_SET_NO":999,"REV_AT_EPOCH":5005,"BSTAR":0.00099681062,"MEAN_MOTION_DOT":0.00027262,"MEAN_MOTION_DDOT":0},{"OBJECT_NAME":"STARLINK-33674","OBJECT_ID":"2025-057Y","EPOCH":"2026-01-30T14:45:35.286336","MEAN_MOTION":15.27589826,"ECCENTRICITY":1.852e-5,"INCLINATION":42.9912,"RA_OF_ASC_NODE":245.9391,"ARG_OF_PERICENTER":37.4957,"MEAN_ANOMALY":322.5907,"EPHEMERIS_TYPE":0,"CLASSIFICATION_TYPE":"U","NORAD_CAT_ID":63329,"ELEMENT_SET_NO":999,"REV_AT_EPOCH":4995,"BSTAR":0.00085949962,"MEAN_MOTION_DOT":0.00023472,"MEAN_MOTION_DDOT":0},{"OBJECT_NAME":"STARLINK-32840","OBJECT_ID":"2025-063A","EPOCH":"2026-01-30T21:32:29.868288","MEAN_MOTION":15.30194605,"ECCENTRICITY":0.00011063,"INCLINATION":53.1555,"RA_OF_ASC_NODE":225.156,"ARG_OF_PERICENTER":79.0819,"MEAN_ANOMALY":281.0306,"EPHEMERIS_TYPE":0,"CLASSIFICATION_TYPE":"U","NORAD_CAT_ID":63363,"ELEMENT_SET_NO":999,"REV_AT_EPOCH":4899,"BSTAR":0.00082561833,"MEAN_MOTION_DOT":0.00024169,"MEAN_MOTION_DDOT":0}]
