STARLINK-11652 [DTC]    
1 63315U 25057J   26030.63967887  .00039334  00000+0  30847-3 0  9998
2 63315  43.0012 133.8549 0001737 292.7584  67.3099 15.70848746 51222
STARLINK-11645 [DTC]    
1 63316U 25057K   26030.66091647  .00212721  00000+0  16153-2 0  9990
2 63316  43.0001 134.0265 0002594 303.0307  57.0311 15.70897027 51229
STARLINK-11633 [DTC]    
1 63317U 25057L   26030.61313604  .00235882  00000+0  17820-2 0  9991
2 63317  43.0008 133.6394 0002577 323.3747  36.6945 15.70946569 51197
STARLINK-11593 [DTC]    
1 63318U 25057M   26030.62375579  .00368369  00000+0  27373-2 0  9993
2 63318  43.0008 133.7234 0001807 292.6970  67.3706 15.70941603 51227
STARLINK-11588 [DTC]    
1 63319U 25057N   26030.63436823  .00159103  00000+0  12166-2 0  9993
2 63319  43.0004 133.8102 0001977 301.2439  58.8234 15.70903212 51195
STARLINK-33671          
1 63320U 25057P   26030.91767212  .00029053  00000+0  10604-2 0  9990
2 63320  42.9945 233.5304 0003036 249.0003 111.0524 15.27598686 50128
STARLINK-33650          
1 63321U 25057Q   26030.92007650  .00025018  00000+0  91508-3 0  9995
2 63321  43.0015 243.9327 0002351 253.4565 106.6029 15.27596972 49966
STARLINK-33689          
1 63322U 25057R   26028.94616517  .00047585  00000+0  16809-2 0  9996
2 63322  43.0047 254.9212 0002835 280.6208  79.4324 15.28476339 49702
STARLINK-33607          
1 63323U 25057S   26030.60728106  .00039415  00000+0  14335-2 0  9996
2 63323  42.9977 245.8854 0001132 262.4659  97.6064 15.27596291 49916
STARLINK-33619          
1 63324U 25057T   26030.64182930  .00024318  00000+0  88987-3 0  9991
2 63324  42.9978 245.2749 0000109 230.4548 129.6294 15.27596489 49965
STARLINK-33612          
1 63325U 25057U   26030.95863118  .00020851  00000+0  76437-3 0  9995
2 63325  42.9971 244.2179 0001779 256.2431 103.8223 15.27610504 50004
STARLINK-33672          
1 63326U 25057V   26030.91879058  .00022234  00000+0  81510-3 0  9997
2 63326  43.0002 243.9078 0001545 268.7480  91.3195 15.27577093 50003
STARLINK-33625          
1 63327U 25057W   26030.95045667  .00019366  00000+0  71081-3 0  9997
2 63327  43.0029 236.3778 0002191 280.2923  79.7682 15.27607307 50097
STARLINK-33699          
1 63328U 25057X   26030.93888901  .00027262  00000+0  99681-3 0  9992
2 63328  42.9979 236.2809 0001373 267.5123  92.5572 15.27571395 50059
STARLINK-33674          
1 63329U 25057Y   26030.61499174  .00023472  00000+0  85950-3 0  9991
2 63329  42.9912 245.9391 0000185  37.4957 322.5907 15.27589826 49952
STARLINK-32840          
1 63363U 25063A   26030.89756792  .00024169  00000+0  82562-3 0  9998
2 63363  53.1555 225.1560 0001106  79.0819 281.0306 15.30194605 48994
